{"type": "FeatureCollection", "features": [ {"type": "Feature", "properties": {"norad_id": 33980, "name": "COSMOS 2251 DEB", "group": "cosmos-2251-debris", "lat": -25.31701965872795, "lon": -95.8052950386007, "alt_km": 683.3227929208097, "timestamp": "2025-12-03T19:33:07.370536+00:00", "meta": {"OBJECT_NAME": "COSMOS 2251 DEB", "OBJECT_ID": "1993-036FP", "EPOCH": "2025-12-03T09:00:56.287872", "MEAN_MOTION": 14.58540369, "ECCENTRICITY": 0.0029211, "INCLINATION": 74.0217, "RA_OF_ASC_NODE": 77.2408, "ARG_OF_PERICENTER": 223.7972, "MEAN_ANOMALY": 198.3757, "EPHEMERIS_TYPE": 0, "CLASSIFICATION_TYPE": "U", "NORAD_CAT_ID": 33980, "ELEMENT_SET_NO": 999, "REV_AT_EPOCH": 88658, "BSTAR": 0.0012434, "MEAN_MOTION_DOT": 5.789e-05, "MEAN_MOTION_DDOT": 0}, "tle": {"line1": "1 33980U 93036FP  25337.37565148  .00005789  00000+0  12434-2 0  9997", "line2": "2 33980  74.0217  77.2408 0029211 223.7972 198.3757 14.58540369886581"}}, "geometry": {"type": "Point", "coordinates": [-95.8052950386007, -25.31701965872795]}}, {"type": "Feature", "properties": {"norad_id": 33982, "name": "COSMOS 2251 DEB", "group": "cosmos-2251-debris", "lat": 9.198727864710756, "lon": 19.589797066215848, "alt_km": 662.9686791407839, "timestamp": "2025-12-03T19:33:07.370546+00:00", "meta": {"OBJECT_NAME": "COSMOS 2251 DEB", "OBJECT_ID": "1993-036FR", "EPOCH": "2025-12-03T09:41:39.714432", "MEAN_MOTION": 14.6015787, "ECCENTRICITY": 0.0074825, "INCLINATION": 74.0704, "RA_OF_ASC_NODE": 17.7209, "ARG_OF_PERICENTER": 64.9829, "MEAN_ANOMALY": 307.2182, "EPHEMERIS_TYPE": 0, "CLASSIFICATION_TYPE": "U", "NORAD_CAT_ID": 33982, "ELEMENT_SET_NO": 999, "REV_AT_EPOCH": 89023, "BSTAR": 0.00046077, "MEAN_MOTION_DOT": 2.278e-05, "MEAN_MOTION_DDOT": 0}, "tle": {"line1": "1 33982U 93036FR  25337.40393188  .00002278  00000+0  46077-3 0  9997", "line2": "2 33982  74.0704  17.7209 0074825  64.9829 307.2182 14.60157870890233"}}, "geometry": {"type": "Point", "coordinates": [19.589797066215848, 9.198727864710756]}}, {"type": "Feature", "properties": {"norad_id": 33983, "name": "COSMOS 2251 DEB", "group": "cosmos-2251-debris", "lat": -63.53116585869672, "lon": 18.868016891012, "alt_km": 716.1266998466672, "timestamp": "2025-12-03T19:33:07.370556+00:00", "meta": {"OBJECT_NAME": "COSMOS 2251 DEB", "OBJECT_ID": "1993-036FS", "EPOCH": "2025-12-03T11:54:58.857120", "MEAN_MOTION": 14.50607557, "ECCENTRICITY": 0.0021416, "INCLINATION": 74.0487, "RA_OF_ASC_NODE": 164.4052, "ARG_OF_PERICENTER": 268.3025, "MEAN_ANOMALY": 119.5503, "EPHEMERIS_TYPE": 0, "CLASSIFICATION_TYPE": "U", "NORAD_CAT_ID": 33983, "ELEMENT_SET_NO": 999, "REV_AT_EPOCH": 88495, "BSTAR": 0.00073089, "MEAN_MOTION_DOT": 2.849e-05, "MEAN_MOTION_DDOT": 0}, "tle": {"line1": "1 33983U 93036FS  25337.49651455  .00002849  00000+0  73089-3 0  9998", "line2": "2 33983  74.0487 164.4052 0021416 268.3025 119.5503 14.50607557884958"}}, "geometry": {"type": "Point", "coordinates": [18.868016891012, -63.53116585869672]}}, {"type": "Feature", "properties": {"norad_id": 33984, "name": "COSMOS 2251 DEB", "group": "cosmos-2251-debris", "lat": -30.463311631335245, "lon": -165.9545291048175, "alt_km": 662.1742897564982, "timestamp": "2025-12-03T19:33:07.370566+00:00", "meta": {"OBJECT_NAME": "COSMOS 2251 DEB", "OBJECT_ID": "1993-036FT", "EPOCH": "2025-12-03T12:35:20.414112", "MEAN_MOTION": 14.66228936, "ECCENTRICITY": 0.0023701, "INCLINATION": 74.0099, "RA_OF_ASC_NODE": 4.8953, "ARG_OF_PERICENTER": 205.202, "MEAN_ANOMALY": 275.7084, "EPHEMERIS_TYPE": 0, "CLASSIFICATION_TYPE": "U", "NORAD_CAT_ID": 33984, "ELEMENT_SET_NO": 999, "REV_AT_EPOCH": 88931, "BSTAR": 0.0011762, "MEAN_MOTION_DOT": 6.48e-05, "MEAN_MOTION_DDOT": 0}, "tle": {"line1": "1 33984U 93036FT  25337.52454183  .00006480  00000+0  11762-2 0  9996", "line2": "2 33984  74.0099   4.8953 0023701 205.2020 275.7084 14.66228936889310"}}, "geometry": {"type": "Point", "coordinates": [-165.9545291048175, -30.463311631335245]}}, {"type": "Feature", "properties": {"norad_id": 33986, "name": "COSMOS 2251 DEB", "group": "cosmos-2251-debris", "lat": -57.53605113961141, "lon": 165.99067973146097, "alt_km": 780.2435389274688, "timestamp": "2025-12-03T19:33:07.370576+00:00", "meta": {"OBJECT_NAME": "COSMOS 2251 DEB", "OBJECT_ID": "1993-036FV", "EPOCH": "2025-12-03T05:11:50.753760", "MEAN_MOTION": 14.43121163, "ECCENTRICITY": 0.0039941, "INCLINATION": 74.0363, "RA_OF_ASC_NODE": 320.3611, "ARG_OF_PERICENTER": 35.4422, "MEAN_ANOMALY": 339.9984, "EPHEMERIS_TYPE": 0, "CLASSIFICATION_TYPE": "U", "NORAD_CAT_ID": 33986, "ELEMENT_SET_NO": 999, "REV_AT_EPOCH": 87891, "BSTAR": 0.0010907, "MEAN_MOTION_DOT": 3.672e-05, "MEAN_MOTION_DDOT": 0}, "tle": {"line1": "1 33986U 93036FV  25337.21655965  .00003672  00000+0  10907-2 0  9995", "line2": "2 33986  74.0363 320.3611 0039941  35.4422 339.9984 14.43121163878910"}}, "geometry": {"type": "Point", "coordinates": [165.99067973146097, -57.53605113961141]}}, {"type": "Feature", "properties": {"norad_id": 33990, "name": "COSMOS 2251 DEB", "group": "cosmos-2251-debris", "lat": 46.286678473780285, "lon": -42.1276337663711, "alt_km": 1037.7866038388802, "timestamp": "2025-12-03T19:33:07.370587+00:00", "meta": {"OBJECT_NAME": "COSMOS 2251 DEB", "OBJECT_ID": "1993-036FZ", "EPOCH": "2025-12-03T09:29:00.953088", "MEAN_MOTION": 13.49944652, "ECCENTRICITY": 0.0407596, "INCLINATION": 73.9281, "RA_OF_ASC_NODE": 300.9964, "ARG_OF_PERICENTER": 322.9854, "MEAN_ANOMALY": 203.1867, "EPHEMERIS_TYPE": 0, "CLASSIFICATION_TYPE": "U", "NORAD_CAT_ID": 33990, "ELEMENT_SET_NO": 999, "REV_AT_EPOCH": 82603, "BSTAR": 0.0022364, "MEAN_MOTION_DOT": 2.358e-05, "MEAN_MOTION_DDOT": 0}, "tle": {"line1": "1 33990U 93036FZ  25337.39514992  .00002358  00000+0  22364-2 0  9993", "line2": "2 33990  73.9281 300.9964 0407596 322.9854 203.1867 13.49944652826034"}}, "geometry": {"type": "Point", "coordinates": [-42.1276337663711, 46.286678473780285]}}, {"type": "Feature", "properties": {"norad_id": 33992, "name": "COSMOS 2251 DEB", "group": "cosmos-2251-debris", "lat": 70.34400194701836, "lon": 48.27743828543015, "alt_km": 637.258892570766, "timestamp": "2025-12-03T19:33:07.370597+00:00", "meta": {"OBJECT_NAME": "COSMOS 2251 DEB", "OBJECT_ID": "1993-036GB", "EPOCH": "2025-12-03T11:44:13.869888", "MEAN_MOTION": 14.66095302, "ECCENTRICITY": 0.0051757, "INCLINATION": 74.0241, "RA_OF_ASC_NODE": 355.5788, "ARG_OF_PERICENTER": 116.3862, "MEAN_ANOMALY": 44.5114, "EPHEMERIS_TYPE": 0, "CLASSIFICATION_TYPE": "U", "NORAD_CAT_ID": 33992, "ELEMENT_SET_NO": 999, "REV_AT_EPOCH": 88989, "BSTAR": 0.00096902, "MEAN_MOTION_DOT": 5.401e-05, "MEAN_MOTION_DDOT": 0}, "tle": {"line1": "1 33992U 93036GB  25337.48904942  .00005401  00000+0  96902-3 0  9995", "line2": "2 33992  74.0241 355.5788 0051757 116.3862  44.5114 14.66095302889896"}}, "geometry": {"type": "Point", "coordinates": [48.27743828543015, 70.34400194701836]}}, {"type": "Feature", "properties": {"norad_id": 33994, "name": "COSMOS 2251 DEB", "group": "cosmos-2251-debris", "lat": 66.48958092352353, "lon": -111.94817336516888, "alt_km": 747.5335459191238, "timestamp": "2025-12-03T19:33:07.370607+00:00", "meta": {"OBJECT_NAME": "COSMOS 2251 DEB", "OBJECT_ID": "1993-036GD", "EPOCH": "2025-12-03T08:07:35.178240", "MEAN_MOTION": 14.41205422, "ECCENTRICITY": 0.0023304, "INCLINATION": 74.0425, "RA_OF_ASC_NODE": 207.806, "ARG_OF_PERICENTER": 343.9242, "MEAN_ANOMALY": 139.3541, "EPHEMERIS_TYPE": 0, "CLASSIFICATION_TYPE": "U", "NORAD_CAT_ID": 33994, "ELEMENT_SET_NO": 999, "REV_AT_EPOCH": 88284, "BSTAR": 0.0001391, "MEAN_MOTION_DOT": 4.24e-06, "MEAN_MOTION_DDOT": 0}, "tle": {"line1": "1 33994U 93036GD  25337.33860160  .00000424  00000+0  13910-3 0  9992", "line2": "2 33994  74.0425 207.8060 0023304 343.9242 139.3541 14.41205422882845"}}, "geometry": {"type": "Point", "coordinates": [-111.94817336516888, 66.48958092352353]}}, {"type": "Feature", "properties": {"norad_id": 33995, "name": "COSMOS 2251 DEB", "group": "cosmos-2251-debris", "lat": -3.9913972308617485, "lon": 134.5354278174968, "alt_km": 819.1512467578477, "timestamp": "2025-12-03T19:33:07.370617+00:00", "meta": {"OBJECT_NAME": "COSMOS 2251 DEB", "OBJECT_ID": "1993-036GE", "EPOCH": "2025-12-03T04:30:35.521632", "MEAN_MOTION": 14.34683036, "ECCENTRICITY": 0.00609, "INCLINATION": 74.0597, "RA_OF_ASC_NODE": 136.8242, "ARG_OF_PERICENTER": 153.8096, "MEAN_ANOMALY": 206.6159, "EPHEMERIS_TYPE": 0, "CLASSIFICATION_TYPE": "U", "NORAD_CAT_ID": 33995, "ELEMENT_SET_NO": 999, "REV_AT_EPOCH": 87382, "BSTAR": 0.0014459, "MEAN_MOTION_DOT": 4.155e-05, "MEAN_MOTION_DDOT": 0}, "tle": {"line1": "1 33995U 93036GE  25337.18791113  .00004155  00000+0  14459-2 0  9990", "line2": "2 33995  74.0597 136.8242 0060900 153.8096 206.6159 14.34683036873821"}}, "geometry": {"type": "Point", "coordinates": [134.5354278174968, -3.9913972308617485]}}, {"type": "Feature", "properties": {"norad_id": 33999, "name": "COSMOS 2251 DEB", "group": "cosmos-2251-debris", "lat": 35.57923905624023, "lon": -99.51973544587898, "alt_km": 627.3496935074381, "timestamp": "2025-12-03T19:33:07.370626+00:00", "meta": {"OBJECT_NAME": "COSMOS 2251 DEB", "OBJECT_ID": "1993-036GJ", "EPOCH": "2025-12-03T04:48:45.359136", "MEAN_MOTION": 14.83001777, "ECCENTRICITY": 0.0044678, "INCLINATION": 73.9203, "RA_OF_ASC_NODE": 249.7953, "ARG_OF_PERICENTER": 148.1917, "MEAN_ANOMALY": 212.1973, "EPHEMERIS_TYPE": 0, "CLASSIFICATION_TYPE": "U", "NORAD_CAT_ID": 33999, "ELEMENT_SET_NO": 999, "REV_AT_EPOCH": 89109, "BSTAR": 0.0018736, "MEAN_MOTION_DOT": 0.00015498, "MEAN_MOTION_DDOT": 0}, "tle": {"line1": "1 33999U 93036GJ  25337.20052499  .00015498  00000+0  18736-2 0  9998", "line2": "2 33999  73.9203 249.7953 0044678 148.1917 212.1973 14.83001777891098"}}, "geometry": {"type": "Point", "coordinates": [-99.51973544587898, 35.57923905624023]}}]}